     2.100          NAVIGATION                              RINEX VERSION / TYPE
fic2rin                                 06/25/2010 00:20:57 PGM / RUN BY / DATE
                                                            END OF HEADER
 5 10  6 24 12  0  0.0 -.923266634345D-05 -.250111042988D-11  .000000000000D+00
     .320000000000D+02  .988125000000D+02  .444947105261D-08  .305393822885D+01
     .518932938576D-05  .182028964628D-02  .100731849670D-04  .515373395157D+04
     .388800000000D+06 -.372529029846D-07 -.897604196589D-01 -.204890966415D-07
     .958375617380D+00  .185281250000D+03  .249009203776D+00 -.777460955798D-08
    -.114647632677D-09  .100000000000D+01  .158900000000D+04  .000000000000D+00
     .240000000000D+01  .000000000000D+00 -.884756445885D-08  .320000000000D+02
     .381606000000D+06  .400000000000D+01
 6 10  6 24 12  0  0.0  .596945639700D-03 -.131876731757D-10  .000000000000D+00
     .320000000000D+02  .175625000000D+02  .529664919813D-08 -.272879379577D+01
     .996515154839D-06  .629819033202D-02  .590085983276D-05  .515365100670D+04
     .388800000000D+06  .484287738800D-07 -.223187348087D+01  .819563865662D-07
     .934474208716D+00  .247062500000D+03 -.103432951945D+01 -.820105589261D-08
     .516807241382D-09  .100000000000D+01  .158900000000D+04  .000000000000D+00
     .240000000000D+01  .000000000000D+00 -.512227416039D-08  .320000000000D+02
     .381606000000D+06  .400000000000D+01
 7 10  6 24 12  0  0.0 -.139698386192D-05 -.227373675443D-12  .000000000000D+00
     .360000000000D+02 -.127218750000D+03  .420981821297D-08 -.157396905379D+00
    -.686012208462D-05  .366708147340D-02  .338815152645D-05  .515371213150D+04
     .388800000000D+06  .122934579849D-06  .201164399236D+01  .167638063431D-07
     .971756561858D+00  .321656250000D+03  .303052228224D+01 -.814533928608D-08
    -.432518016111D-09  .100000000000D+01  .158900000000D+04  .000000000000D+00
     .240000000000D+01  .000000000000D+00 -.102445483208D-07  .360000000000D+02
     .381606000000D+06  .400000000000D+01
 8 10  6 24 12  0  0.0  .588409602642D-05  .113686837722D-12  .000000000000D+00
     .250000000000D+02 -.119656250000D+03  .368872507878D-08 -.799877459455D+00
    -.637955963612D-05  .111641766271D-01  .438839197159D-05  .515368402290D+04
     .388800000000D+06  .175088644028D-06  .208015404059D+01 -.257045030594D-06
     .993186461128D+00  .312375000000D+03  .310385901948D+01 -.781175396234D-08
    -.331085219600D-09  .100000000000D+01  .158900000000D+04  .000000000000D+00
     .240000000000D+01  .000000000000D+00 -.372529029846D-08  .250000000000D+02
     .381606000000D+06  .400000000000D+01
 9 10  6 24 12  0  0.0  .143442302942D-04  .216004991671D-11  .000000000000D+00
     .350000000000D+02 -.100937500000D+03  .418553148704D-08 -.919012037980D+00
    -.512227416039D-05  .171548236394D-01  .376626849174D-05  .515371187019D+04
     .388800000000D+06 -.258907675743D-06  .198063533122D+01  .154599547386D-06
     .980820572599D+00  .316500000000D+03  .152645085741D+01 -.831284626341D-08
    -.304298389535D-09  .100000000000D+01  .158900000000D+04  .000000000000D+00
     .240000000000D+01  .000000000000D+00 -.558793544769D-08  .350000000000D+02
     .381606000000D+06  .400000000000D+01
10 10  6 24 12  0  0.0 -.453763641417D-04 -.909494701773D-12  .000000000000D+00
     .790000000000D+02  .102906250000D+03  .449268713845D-08  .312493567816D+01
     .522099435329D-05  .917514145840D-02  .101961195469D-04  .515352717972D+04
     .388800000000D+06 -.577419996262D-07 -.641645934443D-01 -.150874257088D-06
     .953399371334D+00  .179468750000D+03  .664933929853D+00 -.772246452879D-08
    -.108933108930D-09  .100000000000D+01  .158900000000D+04  .000000000000D+00
     .240000000000D+01  .000000000000D+00 -.279396772385D-08  .790000000000D+02
     .381606000000D+06  .400000000000D+01
11 10  6 24 12  0  0.0 -.711344182491D-04 -.261479726760D-11  .000000000000D+00
     .630000000000D+02 -.171875000000D+02  .666242037369D-08 -.297852155858D+00
    -.763684511185D-06  .107309668092D-01  .556744635105D-05  .515373856735D+04
     .388800000000D+06  .465661287308D-07 -.136956697253D+01  .126659870148D-06
     .887874224577D+00  .234687500000D+03  .811159559754D+00 -.911216527254D-08
    -.300369654459D-09  .100000000000D+01  .158900000000D+04  .000000000000D+00
     .240000000000D+01  .000000000000D+00 -.116415321827D-07  .630000000000D+02
     .381606000000D+06  .400000000000D+01
12 10  6 24 12  0  0.0 -.100719276816D-03  .409272615798D-11  .000000000000D+00
     .500000000000D+01 -.648437500000D+02  .392516349881D-08 -.224310686160D+00
    -.345893204212D-05  .348644715268D-02  .107120722532D-04  .515367251396D+04
     .388800000000D+06  .949949026108D-07  .306539096245D+01 -.113621354103D-06
     .971562679863D+00  .180812500000D+03 -.403548380610D+00 -.762603194055D-08
     .249296098469D-09  .100000000000D+01  .158900000000D+04  .000000000000D+00
     .240000000000D+01  .000000000000D+00 -.116415321827D-07  .500000000000D+01
     .381606000000D+06  .400000000000D+01
13 10  6 24 12  0  0.0  .302830711007D-03 -.568434188608D-12  .000000000000D+00
     .150000000000D+02  .770312500000D+02  .401088135502D-08  .227086942749D+01
     .390596687794D-05  .451044703368D-02  .678002834320D-06  .515374514198D+04
     .388800000000D+06 -.111758708954D-07  .103030820781D+01 -.109896063805D-06
     .992622550096D+00  .376531250000D+03  .174891739782D+01 -.807247910830D-08
     .221437795202D-10  .100000000000D+01  .158900000000D+04  .000000000000D+00
     .240000000000D+01  .000000000000D+00 -.107102096081D-07  .150000000000D+02
     .381606000000D+06  .400000000000D+01
14 10  6 24 12  0  0.0  .605322420597D-04  .420641299570D-11  .000000000000D+00
     .530000000000D+02  .686250000000D+02  .413660087746D-08  .216078258328D+01
     .340305268764D-05  .515168451238D-02  .116974115372D-05  .515375382996D+04
     .388800000000D+06 -.447034835815D-07  .100832307407D+01 -.173225998878D-06
     .985883503857D+00  .370593750000D+03 -.214341714881D+01 -.807640784338D-08
     .814319633967D-10  .100000000000D+01  .158900000000D+04  .000000000000D+00
     .240000000000D+01  .000000000000D+00 -.884756445885D-08  .530000000000D+02
     .381606000000D+06  .400000000000D+01
15 10  6 24 12  0  0.0 -.250811688602D-03  .648014975013D-11  .000000000000D+00
     .500000000000D+01  .781875000000D+02  .492091926175D-08  .202492413593D+01
     .428594648838D-05  .250259123277D-02  .162981450558D-05  .515377720070D+04
     .388800000000D+06  .819563865662D-07  .943356940500D+00  .126659870148D-06
     .953492181782D+00  .343656250000D+03 -.165496168460D+00 -.847821029435D-08
     .853606984729D-10  .100000000000D+01  .158900000000D+04  .000000000000D+00
     .240000000000D+01  .000000000000D+00 -.977888703346D-08  .500000000000D+01
     .381606000000D+06  .400000000000D+01
16 10  6 24 12  0  0.0 -.845245085657D-04 -.363797880709D-11  .000000000000D+00
     .104000000000D+03 -.723125000000D+02  .382158775590D-08 -.254511586554D+01
    -.368431210518D-05  .594178540632D-02  .114236027002D-04  .515379291725D+04
     .388800000000D+06 -.782310962677D-07  .308283875190D+01  .502914190292D-07
     .972767031560D+00  .167093750000D+03 -.197115123916D+00 -.751638451616D-08
     .444304221340D-09  .100000000000D+01  .158900000000D+04  .000000000000D+00
     .240000000000D+01  .000000000000D+00 -.977888703346D-08  .104000000000D+03
     .381606000000D+06  .400000000000D+01
17 10  6 24 12  0  0.0  .158365350217D-03  .204636307899D-11  .000000000000D+00
     .640000000000D+02  .133125000000D+02  .467376610969D-08  .261810118498D+01
     .845640897751D-06  .547070906032D-02  .621378421783D-05  .515361271095D+04
     .388800000000D+06 -.391155481339D-07 -.215769285495D+01 -.124797224998D-06
     .960058929919D+00  .257781250000D+03 -.250147528275D+01 -.789425739894D-08
     .513235664040D-09  .100000000000D+01  .158900000000D+04  .000000000000D+00
     .240000000000D+01  .000000000000D+00 -.102445483208D-07  .640000000000D+02
     .381606000000D+06  .400000000000D+01
18 10  6 24 12  0  0.0  .766539014876D-04  .238742359215D-11  .000000000000D+00
     .300000000000D+02  .106406250000D+03  .487091717897D-08 -.221965838408D+01
     .542216002941D-05  .115583474981D-01  .897236168385D-05  .515370585060D+04
     .388800000000D+06  .193715095520D-06 -.646285462098D-01 -.633299350739D-07
     .937363862522D+00  .193406250000D+03 -.232824190441D+01 -.793997358891D-08
     .464305054455D-11  .100000000000D+01  .158900000000D+04  .000000000000D+00
     .240000000000D+01  .000000000000D+00 -.107102096081D-07  .300000000000D+02
     .381606000000D+06  .400000000000D+01
20 10  6 24 12  0  0.0  .542220659554D-04 -.568434188608D-12  .000000000000D+00
     .150000000000D+02  .116906250000D+03  .488127475326D-08 -.202212026764D+01
     .604800879955D-05  .417313189246D-02  .103898346424D-04  .515359343719D+04
     .388800000000D+06  .558793544769D-07 -.118545509691D+00  .279396772385D-07
     .937245745053D+00  .167375000000D+03  .132152507782D+01 -.799604735318D-08
    -.121076471892D-09  .100000000000D+01  .158900000000D+04  .000000000000D+00
     .240000000000D+01  .000000000000D+00 -.791624188423D-08  .150000000000D+02
     .381606000000D+06  .400000000000D+01
21 10  6 24 12  0  0.0 -.692959874868D-04 -.261479726760D-11  .000000000000D+00
     .760000000000D+02 -.493750000000D+01  .533843665303D-08 -.111238367595D+01
    -.109896063805D-06  .166926837992D-01  .690110027790D-05  .515365675354D+04
     .388800000000D+06  .394880771637D-06 -.112105752059D+01  .108033418655D-06
     .932130157523D+00  .224718750000D+03 -.246786419714D+01 -.826034407649D-08
    -.329656588663D-09  .100000000000D+01  .158900000000D+04  .000000000000D+00
     .240000000000D+01  .000000000000D+00 -.121071934700D-07  .760000000000D+02
     .381606000000D+06  .400000000000D+01
